[{"OBJECT_NAME":"ONEWEB-0034","OBJECT_ID":"2020-020AG","EPOCH":"2025-09-05T01:56:17.454912","MEAN_MOTION":13.11415112,"ECCENTRICITY":0.00016804,"INCLINATION":87.878,"RA_OF_ASC_NODE":77.8574,"ARG_OF_PERICENTER":87.3365,"MEAN_ANOMALY":272.7955,"EPHEMERIS_TYPE":0,"CLASSIFICATION_TYPE":"U","NORAD_CAT_ID":45454,"ELEMENT_SET_NO":999,"REV_AT_EPOCH":26522,"BSTAR":-0.00055489146,"MEAN_MOTION_DOT":-1.84e-6,"MEAN_MOTION_DDOT":0},{"OBJECT_NAME":"ONEWEB-0060","OBJECT_ID":"2020-020AH","EPOCH":"2025-09-05T01:14:47.620320","MEAN_MOTION":13.11420344,"ECCENTRICITY":0.00020207,"INCLINATION":87.8773,"RA_OF_ASC_NODE":77.8902,"ARG_OF_PERICENTER":49.2406,"MEAN_ANOMALY":310.8897,"EPHEMERIS_TYPE":0,"CLASSIFICATION_TYPE":"U","NORAD_CAT_ID":45455,"ELEMENT_SET_NO":999,"REV_AT_EPOCH":26517,"BSTAR":0.0013859685,"MEAN_MOTION_DOT":5.04e-6,"MEAN_MOTION_DDOT":0},{"OBJECT_NAME":"ONEWEB-0086","OBJECT_ID":"2020-020AJ","EPOCH":"2025-09-05T06:13:52.086432","MEAN_MOTION":13.11420393,"ECCENTRICITY":0.00012322,"INCLINATION":87.8782,"RA_OF_ASC_NODE":77.8191,"ARG_OF_PERICENTER":63.4353,"MEAN_ANOMALY":296.6901,"EPHEMERIS_TYPE":0,"CLASSIFICATION_TYPE":"U","NORAD_CAT_ID":45456,"ELEMENT_SET_NO":999,"REV_AT_EPOCH":26526,"BSTAR":-0.00091078817,"MEAN_MOTION_DOT":-3.1e-6,"MEAN_MOTION_DDOT":0},{"OBJECT_NAME":"ONEWEB-0088","OBJECT_ID":"2020-020AK","EPOCH":"2025-09-05T05:42:07.709472","MEAN_MOTION":13.1141654,"ECCENTRICITY":0.00018204,"INCLINATION":87.8782,"RA_OF_ASC_NODE":77.7693,"ARG_OF_PERICENTER":86.0499,"MEAN_ANOMALY":274.0837,"EPHEMERIS_TYPE":0,"CLASSIFICATION_TYPE":"U","NORAD_CAT_ID":45457,"ELEMENT_SET_NO":999,"REV_AT_EPOCH":26519,"BSTAR":-0.00061242765,"MEAN_MOTION_DOT":-2.04e-6,"MEAN_MOTION_DDOT":0},{"OBJECT_NAME":"ONEWEB-0102","OBJECT_ID":"2020-100A","EPOCH":"2025-09-05T03:50:46.323168","MEAN_MOTION":13.124433,"ECCENTRICITY":0.00016239,"INCLINATION":87.8887,"RA_OF_ASC_NODE":47.3192,"ARG_OF_PERICENTER":98.406,"MEAN_ANOMALY":261.7252,"EPHEMERIS_TYPE":0,"CLASSIFICATION_TYPE":"U","NORAD_CAT_ID":47258,"ELEMENT_SET_NO":999,"REV_AT_EPOCH":22734,"BSTAR":-0.0011963627,"MEAN_MOTION_DOT":-4.18e-6,"MEAN_MOTION_DDOT":0},{"OBJECT_NAME":"ONEWEB-0109","OBJECT_ID":"2020-100B","EPOCH":"2025-09-05T04:02:26.897568","MEAN_MOTION":13.1244481,"ECCENTRICITY":0.00016158,"INCLINATION":87.8887,"RA_OF_ASC_NODE":47.2862,"ARG_OF_PERICENTER":96.6434,"MEAN_ANOMALY":263.4879,"EPHEMERIS_TYPE":0,"CLASSIFICATION_TYPE":"U","NORAD_CAT_ID":47259,"ELEMENT_SET_NO":999,"REV_AT_EPOCH":22717,"BSTAR":-0.0010353687,"MEAN_MOTION_DOT":-3.6e-6,"MEAN_MOTION_DDOT":0},{"OBJECT_NAME":"ONEWEB-0110","OBJECT_ID":"2020-100C","EPOCH":"2025-09-05T04:39:49.273920","MEAN_MOTION":13.12443047,"ECCENTRICITY":0.00015315,"INCLINATION":87.8885,"RA_OF_ASC_NODE":47.2654,"ARG_OF_PERICENTER":85.2074,"MEAN_ANOMALY":274.923,"EPHEMERIS_TYPE":0,"CLASSIFICATION_TYPE":"U","NORAD_CAT_ID":47260,"ELEMENT_SET_NO":999,"REV_AT_EPOCH":22734,"BSTAR":0.0015222557,"MEAN_MOTION_DOT":5.6e-6,"MEAN_MOTION_DDOT":0},{"OBJECT_NAME":"ONEWEB-0111","OBJECT_ID":"2020-100D","EPOCH":"2025-09-05T03:34:25.487904","MEAN_MOTION":13.12442195,"ECCENTRICITY":0.0001674,"INCLINATION":87.8886,"RA_OF_ASC_NODE":47.2913,"ARG_OF_PERICENTER":94.3347,"MEAN_ANOMALY":265.7973,"EPHEMERIS_TYPE":0,"CLASSIFICATION_TYPE":"U","NORAD_CAT_ID":47261,"ELEMENT_SET_NO":999,"REV_AT_EPOCH":22717,"BSTAR":-0.00026737169,"MEAN_MOTION_DOT":-8.3e-7,"MEAN_MOTION_DDOT":0},{"OBJECT_NAME":"ONEWEB-0114","OBJECT_ID":"2020-100E","EPOCH":"2025-09-05T04:18:48.083616","MEAN_MOTION":13.12444156,"ECCENTRICITY":0.0001687,"INCLINATION":87.8887,"RA_OF_ASC_NODE":47.279,"ARG_OF_PERICENTER":104.8404,"MEAN_ANOMALY":255.2911,"EPHEMERIS_TYPE":0,"CLASSIFICATION_TYPE":"U","NORAD_CAT_ID":47262,"ELEMENT_SET_NO":999,"REV_AT_EPOCH":22713,"BSTAR":-0.00034461538,"MEAN_MOTION_DOT":-1.11e-6,"MEAN_MOTION_DDOT":0},{"OBJECT_NAME":"ONEWEB-0117","OBJECT_ID":"2020-100F","EPOCH":"2025-09-05T04:07:07.143744","MEAN_MOTION":13.12443859,"ECCENTRICITY":0.00017049,"INCLINATION":87.8888,"RA_OF_ASC_NODE":47.2787,"ARG_OF_PERICENTER":92.2524,"MEAN_ANOMALY":267.8799,"EPHEMERIS_TYPE":0,"CLASSIFICATION_TYPE":"U","NORAD_CAT_ID":47263,"ELEMENT_SET_NO":999,"REV_AT_EPOCH":22714,"BSTAR":-0.00090374245,"MEAN_MOTION_DOT":-3.12e-6,"MEAN_MOTION_DDOT":0},{"OBJECT_NAME":"ONEWEB-0118","OBJECT_ID":"2020-100G","EPOCH":"2025-09-05T04:53:51.190944","MEAN_MOTION":13.12441712,"ECCENTRICITY":0.00019022,"INCLINATION":87.8886,"RA_OF_ASC_NODE":47.2716,"ARG_OF_PERICENTER":102.1529,"MEAN_ANOMALY":257.9813,"EPHEMERIS_TYPE":0,"CLASSIFICATION_TYPE":"U","NORAD_CAT_ID":47264,"ELEMENT_SET_NO":999,"REV_AT_EPOCH":22734,"BSTAR":0.001512018,"MEAN_MOTION_DOT":5.57e-6,"MEAN_MOTION_DDOT":0},{"OBJECT_NAME":"ONEWEB-0119","OBJECT_ID":"2020-100H","EPOCH":"2025-09-05T03:43:45.776352","MEAN_MOTION":13.12443333,"ECCENTRICITY":0.00016362,"INCLINATION":87.8881,"RA_OF_ASC_NODE":47.3189,"ARG_OF_PERICENTER":93.4416,"MEAN_ANOMALY":266.69,"EPHEMERIS_TYPE":0,"CLASSIFICATION_TYPE":"U","NORAD_CAT_ID":47265,"ELEMENT_SET_NO":999,"REV_AT_EPOCH":22731,"BSTAR":-0.0008771806,"MEAN_MOTION_DOT":-3.03e-6,"MEAN_MOTION_DDOT":0},{"OBJECT_NAME":"ONEWEB-0120","OBJECT_ID":"2020-100J","EPOCH":"2025-09-05T04:16:39.776160","MEAN_MOTION":13.12444704,"ECCENTRICITY":0.00016799,"INCLINATION":87.8888,"RA_OF_ASC_NODE":47.3151,"ARG_OF_PERICENTER":98.2825,"MEAN_ANOMALY":261.8494,"EPHEMERIS_TYPE":0,"CLASSIFICATION_TYPE":"U","NORAD_CAT_ID":47266,"ELEMENT_SET_NO":999,"REV_AT_EPOCH":22734,"BSTAR":-0.00053519421,"MEAN_MOTION_DOT":-1.8e-6,"MEAN_MOTION_DDOT":0},{"OBJECT_NAME":"ONEWEB-0121","OBJECT_ID":"2020-100K","EPOCH":"2025-09-05T04:00:06.869952","MEAN_MOTION":13.12443544,"ECCENTRICITY":0.00016533,"INCLINATION":87.8884,"RA_OF_ASC_NODE":47.2844,"ARG_OF_PERICENTER":90.7253,"MEAN_ANOMALY":269.4065,"EPHEMERIS_TYPE":0,"CLASSIFICATION_TYPE":"U","NORAD_CAT_ID":47267,"ELEMENT_SET_NO":999,"REV_AT_EPOCH":22725,"BSTAR":-0.001149946,"MEAN_MOTION_DOT":-4.01e-6,"MEAN_MOTION_DDOT":0},{"OBJECT_NAME":"ONEWEB-0122","OBJECT_ID":"2020-100L","EPOCH":"2025-09-05T03:52:54.476832","MEAN_MOTION":13.12442877,"ECCENTRICITY":0.00015511,"INCLINATION":87.8884,"RA_OF_ASC_NODE":47.2882,"ARG_OF_PERICENTER":94.147,"MEAN_ANOMALY":265.9836,"EPHEMERIS_TYPE":0,"CLASSIFICATION_TYPE":"U","NORAD_CAT_ID":47268,"ELEMENT_SET_NO":999,"REV_AT_EPOCH":22716,"BSTAR":-0.0012859122,"MEAN_MOTION_DOT":-4.5e-6,"MEAN_MOTION_DDOT":0},{"OBJECT_NAME":"ONEWEB-0123","OBJECT_ID":"2020-100M","EPOCH":"2025-09-05T03:46:05.698560","MEAN_MOTION":13.12442073,"ECCENTRICITY":0.00017839,"INCLINATION":87.8882,"RA_OF_ASC_NODE":47.317,"ARG_OF_PERICENTER":94.5146,"MEAN_ANOMALY":265.6187,"EPHEMERIS_TYPE":0,"CLASSIFICATION_TYPE":"U","NORAD_CAT_ID":47269,"ELEMENT_SET_NO":999,"REV_AT_EPOCH":22730,"BSTAR":-0.00088228462,"MEAN_MOTION_DOT":-3.05e-6,"MEAN_MOTION_DDOT":0}]
