ONEWEB-0034             
1 45454U 20020AG  25248.08075758 -.00000184  00000+0 -55489-3 0  9995
2 45454  87.8780  77.8574 0001680  87.3365 272.7955 13.11415112265221
ONEWEB-0060             
1 45455U 20020AH  25248.05194005  .00000504  00000+0  13860-2 0  9990
2 45455  87.8773  77.8902 0002020  49.2406 310.8897 13.11420344265177
ONEWEB-0086             
1 45456U 20020AJ  25248.25963063 -.00000310  00000+0 -91079-3 0  9997
2 45456  87.8782  77.8191 0001232  63.4353 296.6901 13.11420393265262
ONEWEB-0088             
1 45457U 20020AK  25248.23758923 -.00000204  00000+0 -61243-3 0  9995
2 45457  87.8782  77.7693 0001820  86.0499 274.0837 13.11416540265193
ONEWEB-0102             
1 47258U 20100A   25248.16025837 -.00000418  00000+0 -11964-2 0  9999
2 47258  87.8887  47.3192 0001623  98.4060 261.7252 13.12443300227343
ONEWEB-0109             
1 47259U 20100B   25248.16836687 -.00000360  00000+0 -10354-2 0  9991
2 47259  87.8887  47.2862 0001615  96.6434 263.4879 13.12444810227175
ONEWEB-0110             
1 47260U 20100C   25248.19432030  .00000560  00000+0  15223-2 0  9990
2 47260  87.8885  47.2654 0001531  85.2074 274.9230 13.12443047227343
ONEWEB-0111             
1 47261U 20100D   25248.14890611 -.00000083  00000+0 -26737-3 0  9994
2 47261  87.8886  47.2913 0001674  94.3347 265.7973 13.12442195227171
ONEWEB-0114             
1 47262U 20100E   25248.17972319 -.00000111  00000+0 -34462-3 0  9990
2 47262  87.8887  47.2790 0001687 104.8404 255.2911 13.12444156227132
ONEWEB-0117             
1 47263U 20100F   25248.17161046 -.00000312  00000+0 -90374-3 0  9995
2 47263  87.8888  47.2787 0001704  92.2524 267.8799 13.12443859227146
ONEWEB-0118             
1 47264U 20100G   25248.20406471  .00000557  00000+0  15120-2 0  9998
2 47264  87.8886  47.2716 0001902 102.1529 257.9813 13.12441712227348
ONEWEB-0119             
1 47265U 20100H   25248.15539093 -.00000303  00000+0 -87718-3 0  9994
2 47265  87.8881  47.3189 0001636  93.4416 266.6900 13.12443333227312
ONEWEB-0120             
1 47266U 20100J   25248.17823815 -.00000180  00000+0 -53519-3 0  9990
2 47266  87.8888  47.3151 0001679  98.2825 261.8494 13.12444704227344
ONEWEB-0121             
1 47267U 20100K   25248.16674618 -.00000401  00000+0 -11499-2 0  9991
2 47267  87.8884  47.2844 0001653  90.7253 269.4065 13.12443544227252
ONEWEB-0122             
1 47268U 20100L   25248.16174163 -.00000450  00000+0 -12859-2 0  9997
2 47268  87.8884  47.2882 0001551  94.1470 265.9836 13.12442877227166
ONEWEB-0123             
1 47269U 20100M   25248.15701040 -.00000305  00000+0 -88228-3 0  9990
2 47269  87.8882  47.3170 0001783  94.5146 265.6187 13.12442073227307
